KUIPER-00053            
1 64513U 25134P   25268.00002315 -.00006593  00000+0 -30449-3 0  9995
2 64513  51.8861 240.0294 0004346  81.3117 345.7944 15.18036805  5175
KUIPER-00054            
1 64514U 25134Q   25268.00002315 -.00289694  00000+0 -99923-2 0  9992
2 64514  51.8791 239.2300 0006059  92.4412   9.5493 15.30656085  5749
KUIPER-00055            
1 64515U 25134R   25267.00002315  .00038670  00000+0  12299-2 0  9997
2 64515  51.8784 243.7582 0002366  58.3787  80.5410 15.32227098  5633
KUIPER-00056            
1 64516U 25134S   25268.00002315 -.01684737  00000+0 -88083-1 0  9996
2 64516  51.8785 240.6571 0007130  79.2635  84.4669 15.18904545  2579
KUIPER-00057            
1 64517U 25134T   25268.00002315 -.01310222  00000+0 -12813+0 0  9998
2 64517  51.8919 244.8996 0009891  89.4841  64.1722 14.95131280  5338
KUIPER-00058            
1 64518U 25134U   25268.00002315 -.01660273  00000+0 -96199-1 0  9994
2 64518  51.8777 241.5242 0006436  93.9091   2.6326 15.15302509  5848
KUIPER-00059            
1 64519U 25134V   25268.00002315 -.00239997  00000+0 -99315-2 0  9993
2 64519  51.8823 239.5523 0001809 104.2511 240.6466 15.24499674  2107
KUIPER-00060            
1 64520U 25134W   25268.00002315 -.00780761  00000+0 -34715-1 0  9997
2 64520  51.8805 239.5953 0003655  83.4630 195.9869 15.23569902  5177
